{"fetched_at":"2026-04-02T08:58:24Z","count":10811,"tles":[{"name":"GSAT0232 (GALILEO 32)","line1":"1 61182U 24167A   26089.34641450 -.00000030  00000+0  00000+0 0  9992","line2":"2 61182  55.2125 223.4742 0004030 205.9815 336.1496  1.70474335  9534","category":"GPS"}]}